ONEWEB-0509             
1 54127U 22138Q   24025.30338569  .00000066  00000+0  13359-3 0  9990
2 54127  87.9195 118.9277 0001947 108.0998 252.0347 13.19726120 61542
ONEWEB-0510             
1 54128U 22138R   24025.57993615  .00000105  00000+0  22604-3 0  9996
2 54128  87.9170  88.3225 0002207  91.9069 268.2317 13.20771975 63962
ONEWEB-0511             
1 54129U 22138S   24025.30022367  .00000087  00000+0  18532-3 0  9999
2 54129  87.9198 118.9304 0001712 120.0026 240.1277 13.19726312 61570
ONEWEB-0513             
1 54131U 22138U   24025.26311957  .00000100  00000+0  21638-3 0  9990
2 54131  87.9202 118.9399 0002279 121.4523 238.6833 13.19726638 61424
ONEWEB-0514             
1 54132U 22138V   24025.61139749  .00000028  00000+0  37791-4 0  9994
2 54132  87.9199 118.8726 0001760 106.0778 254.0549 13.19723932 61608
ONEWEB-0515             
1 54133U 22138W   24025.56731499  .00000126  00000+0  27731-3 0  9990
2 54133  87.9169  88.3062 0001886  60.8393 299.2929 13.20771747 63984
